KAITUO 1B               
1 40912U 15049P   18013.43836122  .00000997  00000-0  51716-4 0  9996
2 40912  97.4514  22.9969 0014933 184.2698 282.6276 15.18367263128188
TIANWANG 1C (TW-1C)     
1 40926U 15051B   18013.49882623  .00006543  00000-0  13288-3 0  9991
2 40926  97.2048  56.6570 0012307 118.7889 350.9951 15.46596755129385
TIANWANG 1B (TW-1B)     
1 40927U 15051C   18013.53423631  .00006470  00000-0  13679-3 0  9990
2 40927  97.2143  56.6094 0011916 128.8167   9.2591 15.45427438129316
TIANWANG 1A (TW-1A)     
1 40928U 15051D   18013.71018899  .00002769  00000-0  76601-4 0  9999
2 40928  97.2045  50.6811 0012634 151.4177 303.8230 15.37775800129032
LAPAN-A2 (IO-86)        
1 40931U 15052B   18013.44793836  .00000562  00000-0 -10852-4 0  9991
2 40931   5.9957 173.5592 0013779 342.1929  17.7904 14.76560625124099
LQSAT                   
1 40958U 15057A   18013.42404072  .00000014  00000-0  98988-5 0  9992
2 40958  97.9583  89.8426 0019508 110.9954 249.3341 14.73011386122069
CHUBUSAT-2              
1 41338U 16012B   18011.99469837  .00000304  00000-0  17091-4 0  9994
2 41338  31.0020 225.9519 0013980 326.0747  33.8993 14.99902897104367
CHUBUSAT-3              
1 41339U 16012C   18011.96170669  .00000279  00000-0  15023-4 0  9998
2 41339  31.0085 224.9821 0013755 332.7300  27.2635 15.00095633104345
OUFTI-1                 
1 41458U 16025C   18013.33040520  .00001583  00000-0  87756-4 0  9990
2 41458  98.1596  67.7812 0169643 307.1283  51.4541 15.04151124 94159
E-ST@R-II               
1 41459U 16025D   18013.37821034  .00000404  00000-0  26148-4 0  9991
2 41459  98.1570  67.7277 0171004 307.4408  51.1352 15.03912171 94156
AAUSAT 4                
1 41460U 16025E   18013.49411616  .00002072  00000-0  11268-3 0  9996
2 41460  98.1521  68.1340 0162994 303.9395  54.6443 15.05154434 94212
NUSAT 1 (LO-87)         
1 41557U 16033B   18013.43285528  .00001204  00000-0  46895-4 0  9998
2 41557  97.4484  97.8863 0013538 351.6314   8.4697 15.27907976 90527
BEESAT-4                
1 41619U 16040W   18013.22767483  .00001396  00000-0  64736-4 0  9993
2 41619  97.4370  78.3893 0013083  58.3172 301.9338 15.21655970 74528
PRATHAM                 
1 41783U 16059A   18013.14809919  .00000054  00000-0  19936-4 0  9999
2 41783  98.1406  77.0400 0032852 220.6098 139.2653 14.62893813 69298
ALSAT 1N                
1 41789U 16059G   18013.44051816  .00000053  00000-0  19212-4 0  9999
2 41789  98.1407  78.2403 0027502 212.1328 147.8202 14.64118532 69373
NAYIF-1 (EO-88)         
1 42017U 17008BX  18012.89766613  .00001529  00000-0  66214-4 0  9998
2 42017  97.4698  78.7578 0006087 192.0765 168.0327 15.23937787 50411
LILACSAT-1              
1 42725U 98067ME  18013.53909997  .00013528  00000-0  15329-3 0  9996
2 42725  51.6386  62.7215 0005754  14.5657 345.5502 15.62718329 36291
MAX VALIER SAT          
1 42778U 17036P   18013.13136132  .00000979  00000-0  47283-4 0  9991
2 42778  97.4259  75.2661 0011309 249.9415 110.0603 15.20972173 30934
FOX-1B (AO-91)          
1 43017U 17073E   18012.76966464  .00000854  00000-0  72046-4 0  9993
2 43017  97.6968 310.5010 0261809  57.6788 304.9487 14.77835577  8152
